STARLINK-5775           
1 56503U 23065A   23162.68686951  .00000939  00000+0  10612-4 0  9992
2 56503  43.0013 272.5181 0001730 266.5773  93.4897 15.71351701  5696
STARLINK-5716           
1 56504U 23065B   23162.75021868  .00000048  00000+0  38095-5 0  9998
2 56504  42.9991 272.1309 0001670 264.4568  95.6109 15.71356254  4912
STARLINK-5763           
1 56505U 23065C   23162.75011437  .00002973  00000+0  26114-4 0  9997
2 56505  42.9986 272.1311 0001908 273.0030  87.0620 15.71356196  5700
STARLINK-5340           
1 56506U 23065D   23162.75032548  .00001134  00000+0  12095-4 0  9995
2 56506  43.0012 272.1330 0001686 275.8272  84.2403 15.71354532  5705
STARLINK-5333           
1 56507U 23065E   23162.99866335  .00003416  00000+0  29474-4 0  9995
2 56507  43.0011 270.5569 0001560 272.7557  87.3133 15.71366489  4958
STARLINK-5335           
1 56508U 23065F   23162.75000848 -.00000345  00000+0  82091-6 0  9994
2 56508  42.9986 272.1286 0001939 260.1493  99.9156 15.71352781  4912
STARLINK-5334           
1 56509U 23065G   23163.00383015  .00001647  00000+0  15999-4 0  9990
2 56509  43.0011 270.5952 0002010 270.7221  89.3417 15.71362249  4950
STARLINK-5339           
1 56510U 23065H   23163.00403880  .00003796  00000+0  32359-4 0  9991
2 56510  42.9995 270.5937 0001670 269.0592  91.0084 15.71368904  4951
STARLINK-5351           
1 56511U 23065J   23162.68581655  .00001710  00000+0  16489-4 0  9992
2 56511  43.0006 272.5088 0002079 277.5538  82.5093 15.71353232  5699
STARLINK-5349           
1 56512U 23065K   23162.68613448  .00001241  00000+0  12913-4 0  9996
2 56512  42.9996 272.5125 0001734 273.3507  86.7162 15.71349620  5694
STARLINK-5329           
1 56513U 23065L   23163.00340763 -.00000561  00000+0 -83290-6 0  9995
2 56513  42.9979 270.5896 0001632 275.1541  84.9141 15.71368172  4952
STARLINK-5343           
1 56514U 23065M   23162.71835092  .00083653  00000+0  57172-3 0  9995
2 56514  43.0011 271.8804 0003237 337.1900  22.8824 15.73814945  5705
STARLINK-5348           
1 56515U 23065N   23163.00330826  .00001773  00000+0  16963-4 0  9991
2 56515  42.9994 270.5892 0001752 267.2598  92.8069 15.71358961  4956
STARLINK-5342           
1 56516U 23065P   23163.00351404  .00002146  00000+0  19799-4 0  9992
2 56516  42.9997 270.5911 0002114 272.0833  87.9792 15.71365968  4954
STARLINK-5345           
1 56517U 23065Q   23163.32080308  .00001128  00000+0  12052-4 0  9994
2 56517  42.9993 268.6685 0001896 277.4836  82.5816 15.71355072  5005
STARLINK-5346           
1 56518U 23065R   23163.00319804  .00002308  00000+0  21032-4 0  9995
2 56518  43.0002 270.5875 0001513 277.8229  82.2467 15.71365357  4957
STARLINK-6313           
1 56519U 23065S   23163.32059013  .00001694  00000+0  16358-4 0  9996
2 56519  43.0014 268.6684 0001963 275.9357  84.1287 15.71361087  5001
STARLINK-6344           
1 56520U 23065T   23163.32090558  .00000972  00000+0  10850-4 0  9996
2 56520  42.9994 268.6695 0001168 271.6531  88.4203 15.71362758  5005
STARLINK-6333           
1 56521U 23065U   23162.68476595  .00002442  00000+0  22067-4 0  9991
2 56521  43.0004 272.5005 0001748 269.0169  91.0498 15.71353904  5695
STARLINK-6327           
1 56522U 23065V   23162.36727029  .00002014  00000+0  18799-4 0  9990
2 56522  42.9983 274.4193 0001499 283.9502  76.1199 15.71356954  4855
STARLINK-6328           
1 56523U 23065W   23163.00235851  .00000796  00000+0  95113-5 0  9991
2 56523  43.0005 270.5815 0001764 273.7556  86.3111 15.71363328  4953
STARLINK-6323           
1 56524U 23065X   23163.00267198  .00002988  00000+0  26213-4 0  9990
2 56524  42.9994 270.5839 0001843 275.7048  84.3609 15.71367587  4952
STARLINK-6329           
1 56525U 23065Y   23163.31995888  .00001002  00000+0  11077-4 0  9997
2 56525  42.9996 268.6636 0001167 279.3617  80.7118 15.71364323  5006
STARLINK-6317           
1 56526U 23065Z   23162.68466124  .00000938  00000+0  10601-4 0  9992
2 56526  43.0018 272.4992 0001533 264.2509  95.8184 15.71352228  5698
STARLINK-6335           
1 56527U 23065AA  23163.31985190 -.00003166  00000+0 -20686-4 0  9995
2 56527  42.9997 268.6625 0001488 281.1671  78.9030 15.71380186  5001
STARLINK-6337           
1 56528U 23065AB  23163.00225477  .00000706  00000+0  88315-5 0  9996
2 56528  42.9990 270.5814 0001815 271.6682  88.3977 15.71365946  4952
STARLINK-6307           
1 56529U 23065AC  23163.00162824 -.00000688  00000+0 -18036-5 0  9997
2 56529  42.9999 270.5761 0001322 289.7886  70.2839 15.71363658  4957
STARLINK-6318           
1 56530U 23065AD  23163.31974865  .00001542  00000+0  15201-4 0  9997
2 56530  42.9986 268.6608 0001626 272.4821  87.5861 15.71361770  5004
STARLINK-6280           
1 56531U 23065AE  23163.00152128  .00001318  00000+0  13491-4 0  9994
2 56531  43.0003 270.5753 0001597 265.9934  94.0751 15.71358329  4959
STARLINK-6319           
1 56532U 23065AF  23163.31964366  .00001603  00000+0  15664-4 0  9995
2 56532  42.9981 268.6602 0001442 268.3030  91.7672 15.71362705  5003
STARLINK-6310           
1 56533U 23065AG  23163.38279183 -.00002784  00000+0 -17794-4 0  9998
2 56533  42.9991 268.2738 0002091 273.3568  86.7060 15.71344062  5016
STARLINK-6308           
1 56534U 23065AH  23162.68392420  .00002089  00000+0  19371-4 0  9990
2 56534  42.9997 272.4942 0001812 267.6202  92.4458 15.71354959  5693
STARLINK-6309           
1 56535U 23065AJ  23163.25001157 -.00841712  00000+0 -16719-1 0  9995
2 56535  42.9981 270.4016 0001824 269.1738 240.6165 15.48815702  4986
STARLINK-6312           
1 56536U 23065AK  23163.25001157 -.00889034  00000+0 -17636-1 0  9994
2 56536  42.9983 270.4025 0001424 267.9941 240.8577 15.48587836  4980
STARLINK-6311           
1 56537U 23065AL  23163.25001157 -.00864577  00000+0 -17095-1 0  9999
2 56537  42.9980 270.3992 0001350 272.3648 238.2434 15.49019439  4985
STARLINK-6314           
1 56538U 23065AM  23162.68350398  .00001018  00000+0  11207-4 0  9993
2 56538  43.0015 272.4913 0001565 281.4615  78.6077 15.71354725  5699
STARLINK-6135           
1 56539U 23065AN  23163.58335648 -.00891355  00000+0 -17755-1 0  9999
2 56539  42.9981 268.4557 0001080 269.2331 303.0529 15.48479639  5031
STARLINK-6136           
1 56540U 23065AP  23162.91667824 -.00940978  00000+0 -18557-1 0  9998
2 56540  42.9981 272.3501 0001302 283.9203 163.2600 15.48892040  4933
STARLINK-6249           
1 56541U 23065AQ  23163.50001157 -.00412819  00000+0 -78259-2 0  9990
2 56541  42.9979 268.9352 0001395 277.0430 192.6170 15.49037837  5029
STARLINK-6266           
1 56542U 23065AR  23163.58335648 -.00906295  00000+0 -17836-1 0  9993
2 56542  42.9979 268.4523 0001302 275.5821 297.7012 15.48859116  5034
STARLINK-6228           
1 56543U 23065AS  23162.91667824 -.00031468  00000+0 -56474-3 0  9998
2 56543  42.9978 272.3312 0001776 274.3909 180.3664 15.48936257  4933
STARLINK-6226           
1 56544U 23065AT  23163.58335648 -.00873486  00000+0 -17276-1 0  9998
2 56544  42.9982 268.4511 0001045 274.7431 299.3757 15.49041599  5032
STARLINK-6086           
1 56545U 23065AU  23162.91667824 -.00026016  00000+0 -46559-3 0  9996
2 56545  42.9981 272.3290 0001812 278.3847 178.0627 15.48931447  4939
STARLINK-6187           
1 56546U 23065AV  23163.25001157 -.00028281  00000+0 -50723-3 0  9990
2 56546  42.9981 270.3884 0001668 267.2462 247.6054 15.48907446  4980
STARLINK-6291           
1 56547U 23065AW  23162.91667824 -.00026471  00000+0 -47382-3 0  9998
2 56547  42.9979 272.3240 0001745 275.6243 182.5045 15.48934385  4936
STARLINK-6244           
1 56548U 23065AX  23162.91667824 -.00027082  00000+0 -48498-3 0  9997
2 56548  42.9981 272.3294 0001783 278.7089 176.8965 15.48931341  4939
STARLINK-6263           
1 56549U 23065AY  23162.91667824 -.00032364  00000+0 -58109-3 0  9997
2 56549  42.9980 272.3199 0001757 279.1360 180.6853 15.48934831  4937
STARLINK-6255           
1 56550U 23065AZ  23162.91667824 -.00025552  00000+0 -45717-3 0  9991
2 56550  42.9980 272.3260 0001829 275.1249 182.1665 15.48930601  4939
STARLINK-6199           
1 56551U 23065BA  23162.91667824 -.00030677  00000+0 -55033-3 0  9998
2 56551  42.9980 272.3152 0001745 280.6123 180.8921 15.48936453  4930
STARLINK-5802           
1 56552U 23065BB  23162.91667824 -.00030217  00000+0 -54202-3 0  9996
2 56552  42.9980 272.3207 0001779 274.5423 184.4346 15.48933114  4936
STARLINK-6074           
1 56553U 23065BC  23163.16667824 -.00008622  00000+0 -15004-3 0  9997
2 56553  42.9981 270.8540 0001658 266.7785 151.2778 15.48907167  4975
STARLINK-6295           
1 56554U 23065BD  23162.91667824 -.00032098  00000+0 -57621-3 0  9995
2 56554  42.9982 272.3183 0001769 277.5898 183.0696 15.48936228  4933
STARLINK-6252           
1 56555U 23065BE  23162.91667824 -.00025682  00000+0 -45947-3 0  9995
2 56555  42.9978 272.3096 0001656 278.4746 185.5546 15.48934820  4936
STARLINK-5302           
1 56556U 23065BF  23162.91667824 -.00024913  00000+0 -44549-3 0  9999
2 56556  42.9982 272.3115 0001686 277.7174 185.4686 15.48934465  4933
STARLINK-6265           
1 56557U 23065BG  23163.50001157 -.00003427  00000+0 -55958-4 0  9991
2 56557  42.9977 268.9060 0001454 270.3630 211.1223 15.48906783  5024
STARLINK-6286           
1 56558U 23065BH  23162.91667824 -.00036060  00000+0 -64836-3 0  9998
2 56558  42.9979 272.3050 0001578 274.5400 191.1761 15.48939164  1303
FALCON 9 DEB            
1 56559U 23065BJ  23163.30691499  .00535731  13676-3  87998-3 0  9996
2 56559  43.0128 264.0866 0008222 200.2749 159.7805 16.02293066  5421
FALCON 9 DEB            
1 56560U 23065BK  23162.98350680  .00571104  15678-3  90614-3 0  9992
2 56560  43.0067 265.9463 0006875 199.5041 160.5576 16.02896242  5379
FALCON 9 DEB            
1 56561U 23065BL  23163.33579495  .00584413  16874-3  83183-3 0  9999
2 56561  43.0062 263.3972 0004943 176.2089 183.8829 16.04716966  5432
